[{"OBJECT_NAME":"STARLINK-35329","OBJECT_ID":"2025-224AC","EPOCH":"2026-03-23T08:00:07.041312","MEAN_MOTION":15.30216993,"ECCENTRICITY":0.000152,"INCLINATION":53.1594,"RA_OF_ASC_NODE":307.9356,"ARG_OF_PERICENTER":100.3971,"MEAN_ANOMALY":259.7201,"EPHEMERIS_TYPE":0,"CLASSIFICATION_TYPE":"U","NORAD_CAT_ID":65908,"ELEMENT_SET_NO":999,"REV_AT_EPOCH":2695,"BSTAR":0.00096863,"MEAN_MOTION_DOT":0.00028454,"MEAN_MOTION_DDOT":0},{"OBJECT_NAME":"STARLINK-35387","OBJECT_ID":"2025-224AD","EPOCH":"2026-03-22T21:47:20.436288","MEAN_MOTION":15.30188452,"ECCENTRICITY":0.00014432,"INCLINATION":53.1592,"RA_OF_ASC_NODE":310.2571,"ARG_OF_PERICENTER":82.1506,"MEAN_ANOMALY":277.9659,"EPHEMERIS_TYPE":0,"CLASSIFICATION_TYPE":"U","NORAD_CAT_ID":65909,"ELEMENT_SET_NO":999,"REV_AT_EPOCH":2684,"BSTAR":0.00088768377,"MEAN_MOTION_DOT":0.00026014,"MEAN_MOTION_DDOT":0},{"OBJECT_NAME":"STARLINK-35523","OBJECT_ID":"2025-225A","EPOCH":"2026-03-23T10:55:17.571936","MEAN_MOTION":15.30185521,"ECCENTRICITY":0.0001377,"INCLINATION":53.1592,"RA_OF_ASC_NODE":101.8831,"ARG_OF_PERICENTER":91.46,"MEAN_ANOMALY":268.6559,"EPHEMERIS_TYPE":0,"CLASSIFICATION_TYPE":"U","NORAD_CAT_ID":65910,"ELEMENT_SET_NO":999,"REV_AT_EPOCH":2651,"BSTAR":0.0010255,"MEAN_MOTION_DOT":0.00030124,"MEAN_MOTION_DDOT":0},{"OBJECT_NAME":"STARLINK-35160","OBJECT_ID":"2025-225B","EPOCH":"2026-03-23T11:13:30.963936","MEAN_MOTION":15.30183908,"ECCENTRICITY":0.0001263,"INCLINATION":53.159,"RA_OF_ASC_NODE":101.9619,"ARG_OF_PERICENTER":81.9612,"MEAN_ANOMALY":278.1532,"EPHEMERIS_TYPE":0,"CLASSIFICATION_TYPE":"U","NORAD_CAT_ID":65911,"ELEMENT_SET_NO":999,"REV_AT_EPOCH":2651,"BSTAR":0.0010176,"MEAN_MOTION_DOT":0.00029887,"MEAN_MOTION_DDOT":0},{"OBJECT_NAME":"STARLINK-35508","OBJECT_ID":"2025-225C","EPOCH":"2026-03-23T10:59:50.752320","MEAN_MOTION":15.30191778,"ECCENTRICITY":0.0001525,"INCLINATION":53.1591,"RA_OF_ASC_NODE":101.9026,"ARG_OF_PERICENTER":76.776,"MEAN_ANOMALY":283.3411,"EPHEMERIS_TYPE":0,"CLASSIFICATION_TYPE":"U","NORAD_CAT_ID":65912,"ELEMENT_SET_NO":999,"REV_AT_EPOCH":2651,"BSTAR":0.0010056,"MEAN_MOTION_DOT":0.00029534,"MEAN_MOTION_DDOT":0},{"OBJECT_NAME":"STARLINK-35472","OBJECT_ID":"2025-225D","EPOCH":"2026-03-23T07:42:35.868672","MEAN_MOTION":15.30253573,"ECCENTRICITY":8.72e-5,"INCLINATION":53.1588,"RA_OF_ASC_NODE":102.47,"ARG_OF_PERICENTER":79.873,"MEAN_ANOMALY":280.2369,"EPHEMERIS_TYPE":0,"CLASSIFICATION_TYPE":"U","NORAD_CAT_ID":65913,"ELEMENT_SET_NO":999,"REV_AT_EPOCH":2649,"BSTAR":0.002121,"MEAN_MOTION_DOT":0.00063097,"MEAN_MOTION_DDOT":0},{"OBJECT_NAME":"STARLINK-35524","OBJECT_ID":"2025-225E","EPOCH":"2026-03-23T08:17:24.762336","MEAN_MOTION":15.30190933,"ECCENTRICITY":0.0001055,"INCLINATION":53.1574,"RA_OF_ASC_NODE":101.9061,"ARG_OF_PERICENTER":55.2929,"MEAN_ANOMALY":304.8171,"EPHEMERIS_TYPE":0,"CLASSIFICATION_TYPE":"U","NORAD_CAT_ID":65914,"ELEMENT_SET_NO":999,"REV_AT_EPOCH":2650,"BSTAR":0.00088997,"MEAN_MOTION_DOT":0.00026084,"MEAN_MOTION_DDOT":0},{"OBJECT_NAME":"STARLINK-35539","OBJECT_ID":"2025-225F","EPOCH":"2026-03-23T10:38:34.210464","MEAN_MOTION":15.30189408,"ECCENTRICITY":0.0001317,"INCLINATION":53.1594,"RA_OF_ASC_NODE":101.8265,"ARG_OF_PERICENTER":86.9582,"MEAN_ANOMALY":273.1569,"EPHEMERIS_TYPE":0,"CLASSIFICATION_TYPE":"U","NORAD_CAT_ID":65915,"ELEMENT_SET_NO":999,"REV_AT_EPOCH":2651,"BSTAR":0.00095178,"MEAN_MOTION_DOT":0.00027926,"MEAN_MOTION_DDOT":0},{"OBJECT_NAME":"STARLINK-35521","OBJECT_ID":"2025-225G","EPOCH":"2026-03-23T07:36:32.463360","MEAN_MOTION":15.30207151,"ECCENTRICITY":0.000184,"INCLINATION":53.1598,"RA_OF_ASC_NODE":102.4432,"ARG_OF_PERICENTER":87.2586,"MEAN_ANOMALY":272.8625,"EPHEMERIS_TYPE":0,"CLASSIFICATION_TYPE":"U","NORAD_CAT_ID":65916,"ELEMENT_SET_NO":999,"REV_AT_EPOCH":2649,"BSTAR":0.0011479,"MEAN_MOTION_DOT":0.00033801,"MEAN_MOTION_DDOT":0},{"OBJECT_NAME":"STARLINK-35478","OBJECT_ID":"2025-225H","EPOCH":"2026-03-23T10:49:12.326304","MEAN_MOTION":15.30190496,"ECCENTRICITY":0.000124,"INCLINATION":53.1597,"RA_OF_ASC_NODE":101.8548,"ARG_OF_PERICENTER":97.5137,"MEAN_ANOMALY":262.6004,"EPHEMERIS_TYPE":0,"CLASSIFICATION_TYPE":"U","NORAD_CAT_ID":65917,"ELEMENT_SET_NO":999,"REV_AT_EPOCH":2651,"BSTAR":0.00092658,"MEAN_MOTION_DOT":0.00027176,"MEAN_MOTION_DDOT":0},{"OBJECT_NAME":"STARLINK-35516","OBJECT_ID":"2025-225J","EPOCH":"2026-03-23T10:20:20.470272","MEAN_MOTION":15.30187472,"ECCENTRICITY":0.0001209,"INCLINATION":53.1581,"RA_OF_ASC_NODE":101.7311,"ARG_OF_PERICENTER":95.2587,"MEAN_ANOMALY":264.8552,"EPHEMERIS_TYPE":0,"CLASSIFICATION_TYPE":"U","NORAD_CAT_ID":65918,"ELEMENT_SET_NO":999,"REV_AT_EPOCH":2651,"BSTAR":0.00073455,"MEAN_MOTION_DOT":0.00021451,"MEAN_MOTION_DDOT":0},{"OBJECT_NAME":"STARLINK-35519","OBJECT_ID":"2025-225K","EPOCH":"2026-03-23T08:12:50.793120","MEAN_MOTION":15.30194101,"ECCENTRICITY":0.0001253,"INCLINATION":53.1572,"RA_OF_ASC_NODE":101.8854,"ARG_OF_PERICENTER":66.5789,"MEAN_ANOMALY":293.5343,"EPHEMERIS_TYPE":0,"CLASSIFICATION_TYPE":"U","NORAD_CAT_ID":65919,"ELEMENT_SET_NO":999,"REV_AT_EPOCH":2650,"BSTAR":0.00087847,"MEAN_MOTION_DOT":0.00025744,"MEAN_MOTION_DDOT":0},{"OBJECT_NAME":"STARLINK-33902","OBJECT_ID":"2025-225L","EPOCH":"2026-03-23T08:03:51.440256","MEAN_MOTION":15.30254443,"ECCENTRICITY":0.000148,"INCLINATION":53.1583,"RA_OF_ASC_NODE":102.5601,"ARG_OF_PERICENTER":88.6658,"MEAN_ANOMALY":271.4512,"EPHEMERIS_TYPE":0,"CLASSIFICATION_TYPE":"U","NORAD_CAT_ID":65920,"ELEMENT_SET_NO":999,"REV_AT_EPOCH":2649,"BSTAR":0.0016449,"MEAN_MOTION_DOT":0.00048761,"MEAN_MOTION_DDOT":0},{"OBJECT_NAME":"STARLINK-35530","OBJECT_ID":"2025-225M","EPOCH":"2026-03-23T07:59:20.249664","MEAN_MOTION":15.30191165,"ECCENTRICITY":0.00014,"INCLINATION":53.1593,"RA_OF_ASC_NODE":102.5399,"ARG_OF_PERICENTER":75.1656,"MEAN_ANOMALY":284.9499,"EPHEMERIS_TYPE":0,"CLASSIFICATION_TYPE":"U","NORAD_CAT_ID":65921,"ELEMENT_SET_NO":999,"REV_AT_EPOCH":2649,"BSTAR":0.00090138,"MEAN_MOTION_DOT":0.00026425,"MEAN_MOTION_DDOT":0},{"OBJECT_NAME":"STARLINK-35544","OBJECT_ID":"2025-225N","EPOCH":"2026-03-23T11:02:52.319328","MEAN_MOTION":15.30203597,"ECCENTRICITY":0.0001434,"INCLINATION":53.1591,"RA_OF_ASC_NODE":101.9127,"ARG_OF_PERICENTER":94.5239,"MEAN_ANOMALY":265.5926,"EPHEMERIS_TYPE":0,"CLASSIFICATION_TYPE":"U","NORAD_CAT_ID":65922,"ELEMENT_SET_NO":999,"REV_AT_EPOCH":2651,"BSTAR":0.00054949,"MEAN_MOTION_DOT":0.00015952,"MEAN_MOTION_DDOT":0},{"OBJECT_NAME":"STARLINK-35484","OBJECT_ID":"2025-225P","EPOCH":"2026-03-23T10:11:13.345728","MEAN_MOTION":15.3018159,"ECCENTRICITY":0.0001222,"INCLINATION":53.1584,"RA_OF_ASC_NODE":101.6892,"ARG_OF_PERICENTER":95.9345,"MEAN_ANOMALY":264.1795,"EPHEMERIS_TYPE":0,"CLASSIFICATION_TYPE":"U","NORAD_CAT_ID":65923,"ELEMENT_SET_NO":999,"REV_AT_EPOCH":2651,"BSTAR":0.00047976,"MEAN_MOTION_DOT":0.00013869,"MEAN_MOTION_DDOT":0},{"OBJECT_NAME":"STARLINK-34994","OBJECT_ID":"2025-225Q","EPOCH":"2026-03-23T10:06:39.397248","MEAN_MOTION":15.30223002,"ECCENTRICITY":9.63e-5,"INCLINATION":53.1574,"RA_OF_ASC_NODE":101.6685,"ARG_OF_PERICENTER":81.6841,"MEAN_ANOMALY":278.4269,"EPHEMERIS_TYPE":0,"CLASSIFICATION_TYPE":"U","NORAD_CAT_ID":65924,"ELEMENT_SET_NO":999,"REV_AT_EPOCH":2651,"BSTAR":0.00076508,"MEAN_MOTION_DOT":0.00022385,"MEAN_MOTION_DDOT":0},{"OBJECT_NAME":"STARLINK-35458","OBJECT_ID":"2025-225R","EPOCH":"2026-03-23T08:23:29.402304","MEAN_MOTION":15.30196385,"ECCENTRICITY":0.0001092,"INCLINATION":53.1576,"RA_OF_ASC_NODE":101.9321,"ARG_OF_PERICENTER":75.5324,"MEAN_ANOMALY":284.5797,"EPHEMERIS_TYPE":0,"CLASSIFICATION_TYPE":"U","NORAD_CAT_ID":65925,"ELEMENT_SET_NO":999,"REV_AT_EPOCH":2650,"BSTAR":0.0013411,"MEAN_MOTION_DOT":0.00039567,"MEAN_MOTION_DDOT":0},{"OBJECT_NAME":"STARLINK-35492","OBJECT_ID":"2025-225S","EPOCH":"2026-03-23T10:02:04.307424","MEAN_MOTION":15.30210357,"ECCENTRICITY":6.36e-5,"INCLINATION":53.1582,"RA_OF_ASC_NODE":101.6489,"ARG_OF_PERICENTER":103.2493,"MEAN_ANOMALY":256.8579,"EPHEMERIS_TYPE":0,"CLASSIFICATION_TYPE":"U","NORAD_CAT_ID":65926,"ELEMENT_SET_NO":999,"REV_AT_EPOCH":2651,"BSTAR":0.0011366,"MEAN_MOTION_DOT":0.00033465,"MEAN_MOTION_DDOT":0},{"OBJECT_NAME":"STARLINK-35494","OBJECT_ID":"2025-225T","EPOCH":"2026-03-23T11:16:33.413088","MEAN_MOTION":15.30199173,"ECCENTRICITY":0.0001445,"INCLINATION":53.1585,"RA_OF_ASC_NODE":101.973,"ARG_OF_PERICENTER":76.9786,"MEAN_ANOMALY":283.1376,"EPHEMERIS_TYPE":0,"CLASSIFICATION_TYPE":"U","NORAD_CAT_ID":65927,"ELEMENT_SET_NO":999,"REV_AT_EPOCH":2651,"BSTAR":0.0010495,"MEAN_MOTION_DOT":0.00030851,"MEAN_MOTION_DDOT":0},{"OBJECT_NAME":"STARLINK-35493","OBJECT_ID":"2025-225U","EPOCH":"2026-03-23T10:53:45.905856","MEAN_MOTION":15.30193539,"ECCENTRICITY":0.0001499,"INCLINATION":53.1591,"RA_OF_ASC_NODE":101.873,"ARG_OF_PERICENTER":83.6511,"MEAN_ANOMALY":276.466,"EPHEMERIS_TYPE":0,"CLASSIFICATION_TYPE":"U","NORAD_CAT_ID":65928,"ELEMENT_SET_NO":999,"REV_AT_EPOCH":2651,"BSTAR":0.0009964,"MEAN_MOTION_DOT":0.00029262,"MEAN_MOTION_DDOT":0},{"OBJECT_NAME":"STARLINK-35175","OBJECT_ID":"2025-225V","EPOCH":"2026-03-23T10:34:00.146208","MEAN_MOTION":15.30176407,"ECCENTRICITY":0.0001417,"INCLINATION":53.1592,"RA_OF_ASC_NODE":101.7868,"ARG_OF_PERICENTER":76.0292,"MEAN_ANOMALY":284.0867,"EPHEMERIS_TYPE":0,"CLASSIFICATION_TYPE":"U","NORAD_CAT_ID":65929,"ELEMENT_SET_NO":999,"REV_AT_EPOCH":2651,"BSTAR":0.00052092,"MEAN_MOTION_DOT":0.00015089,"MEAN_MOTION_DDOT":0},{"OBJECT_NAME":"STARLINK-35513","OBJECT_ID":"2025-225W","EPOCH":"2026-03-23T10:58:19.572672","MEAN_MOTION":15.30191003,"ECCENTRICITY":0.0001338,"INCLINATION":53.1591,"RA_OF_ASC_NODE":101.892,"ARG_OF_PERICENTER":90.2519,"MEAN_ANOMALY":269.8635,"EPHEMERIS_TYPE":0,"CLASSIFICATION_TYPE":"U","NORAD_CAT_ID":65930,"ELEMENT_SET_NO":999,"REV_AT_EPOCH":2651,"BSTAR":0.00054005,"MEAN_MOTION_DOT":0.00015665,"MEAN_MOTION_DDOT":0}]
